CCSDS_OMM_VERS = 2.0
CREATION_DATE  = 
ORIGINATOR     = 

OBJECT_NAME    = SL-4 R/B
OBJECT_ID      = 2014-021B
CENTER_NAME    = EARTH
REF_FRAME      = TEME
TIME_SYSTEM    = UTC
MEAN_ELEMENT_THEORY = SGP/SGP4

EPOCH          = 2026-02-25T03:51:46.353024
MEAN_MOTION    = 15.38703128
ECCENTRICITY   = .00984796
INCLINATION    = 51.6071
RA_OF_ASC_NODE = 38.3777
ARG_OF_PERICENTER = 57.3095
MEAN_ANOMALY   = 303.7340

EPHEMERIS_TYPE = 0
CLASSIFICATION_TYPE = U
NORAD_CAT_ID   = 39679
ELEMENT_SET_NO = 999
REV_AT_EPOCH   = 65434
BSTAR          = .32168956E-3
MEAN_MOTION_DOT = .1436E-3
MEAN_MOTION_DDOT = 0

CCSDS_OMM_VERS = 2.0
CREATION_DATE  = 
ORIGINATOR     = 

OBJECT_NAME    = ALOS-2
OBJECT_ID      = 2014-029A
CENTER_NAME    = EARTH
REF_FRAME      = TEME
TIME_SYSTEM    = UTC
MEAN_ELEMENT_THEORY = SGP/SGP4

EPOCH          = 2026-02-25T19:34:18.420672
MEAN_MOTION    = 14.79488330
ECCENTRICITY   = .0001619
INCLINATION    = 97.9193
RA_OF_ASC_NODE = 155.5839
ARG_OF_PERICENTER = 98.8471
MEAN_ANOMALY   = 261.2924

EPHEMERIS_TYPE = 0
CLASSIFICATION_TYPE = U
NORAD_CAT_ID   = 39766
ELEMENT_SET_NO = 999
REV_AT_EPOCH   = 63511
BSTAR          = .22609E-3
MEAN_MOTION_DOT = .1638E-4
MEAN_MOTION_DDOT = 0

CCSDS_OMM_VERS = 2.0
CREATION_DATE  = 
ORIGINATOR     = 

OBJECT_NAME    = YAOGAN-29
OBJECT_ID      = 2015-069A
CENTER_NAME    = EARTH
REF_FRAME      = TEME
TIME_SYSTEM    = UTC
MEAN_ELEMENT_THEORY = SGP/SGP4

EPOCH          = 2026-02-25T20:26:39.664608
MEAN_MOTION    = 14.82981483
ECCENTRICITY   = .0002591
INCLINATION    = 98.0165
RA_OF_ASC_NODE = 85.2494
ARG_OF_PERICENTER = 56.1259
MEAN_ANOMALY   = 304.0201

EPHEMERIS_TYPE = 0
CLASSIFICATION_TYPE = U
NORAD_CAT_ID   = 41038
ELEMENT_SET_NO = 999
REV_AT_EPOCH   = 55412
BSTAR          = .92308E-4
MEAN_MOTION_DOT = .695E-5
MEAN_MOTION_DDOT = 0

CCSDS_OMM_VERS = 2.0
CREATION_DATE  = 
ORIGINATOR     = 

OBJECT_NAME    = ASTRO-H (HITOMI)
OBJECT_ID      = 2016-012A
CENTER_NAME    = EARTH
REF_FRAME      = TEME
TIME_SYSTEM    = UTC
MEAN_ELEMENT_THEORY = SGP/SGP4

EPOCH          = 2026-02-25T08:07:33.789792
MEAN_MOTION    = 15.09902171
ECCENTRICITY   = .00099571
INCLINATION    = 30.9997
RA_OF_ASC_NODE = 76.2448
ARG_OF_PERICENTER = 208.5598
MEAN_ANOMALY   = 151.4495

EPHEMERIS_TYPE = 0
CLASSIFICATION_TYPE = U
NORAD_CAT_ID   = 41337
ELEMENT_SET_NO = 999
REV_AT_EPOCH   = 55036
BSTAR          = .1821652E-3
MEAN_MOTION_DOT = .3123E-4
MEAN_MOTION_DDOT = 0

CCSDS_OMM_VERS = 2.0
CREATION_DATE  = 
ORIGINATOR     = 

OBJECT_NAME    = HXMT (HUIYAN)
OBJECT_ID      = 2017-034A
CENTER_NAME    = EARTH
REF_FRAME      = TEME
TIME_SYSTEM    = UTC
MEAN_ELEMENT_THEORY = SGP/SGP4

EPOCH          = 2026-02-25T12:48:49.967424
MEAN_MOTION    = 15.17285709
ECCENTRICITY   = .00313781
INCLINATION    = 43.0142
RA_OF_ASC_NODE = 84.2442
ARG_OF_PERICENTER = 159.9943
MEAN_ANOMALY   = 200.2142

EPHEMERIS_TYPE = 0
CLASSIFICATION_TYPE = U
NORAD_CAT_ID   = 42758
ELEMENT_SET_NO = 999
REV_AT_EPOCH   = 48069
BSTAR          = .25238003E-3
MEAN_MOTION_DOT = .4943E-4
MEAN_MOTION_DDOT = 0

CCSDS_OMM_VERS = 2.0
CREATION_DATE  = 
ORIGINATOR     = 

OBJECT_NAME    = CZ-2C R/B
OBJECT_ID      = 2018-054D
CENTER_NAME    = EARTH
REF_FRAME      = TEME
TIME_SYSTEM    = UTC
MEAN_ELEMENT_THEORY = SGP/SGP4

EPOCH          = 2026-02-26T02:32:29.982048
MEAN_MOTION    = 16.21257797
ECCENTRICITY   = .0010631
INCLINATION    = 35.1237
RA_OF_ASC_NODE = 19.0929
ARG_OF_PERICENTER = 207.5270
MEAN_ANOMALY   = 152.4916

EPHEMERIS_TYPE = 0
CLASSIFICATION_TYPE = U
NORAD_CAT_ID   = 43521
ELEMENT_SET_NO = 999
REV_AT_EPOCH   = 42704
BSTAR          = .83542E-3
MEAN_MOTION_DOT = .1914438E-1
MEAN_MOTION_DDOT = .14466E-5

CCSDS_OMM_VERS = 2.0
CREATION_DATE  = 
ORIGINATOR     = 

OBJECT_NAME    = SAOCOM 1A
OBJECT_ID      = 2018-076A
CENTER_NAME    = EARTH
REF_FRAME      = TEME
TIME_SYSTEM    = UTC
MEAN_ELEMENT_THEORY = SGP/SGP4

EPOCH          = 2026-02-25T19:28:04.179936
MEAN_MOTION    = 14.82154031
ECCENTRICITY   = .000129
INCLINATION    = 97.8888
RA_OF_ASC_NODE = 245.1512
ARG_OF_PERICENTER = 82.4376
MEAN_ANOMALY   = 277.6984

EPHEMERIS_TYPE = 0
CLASSIFICATION_TYPE = U
NORAD_CAT_ID   = 43641
ELEMENT_SET_NO = 999
REV_AT_EPOCH   = 39960
BSTAR          = .88768E-4
MEAN_MOTION_DOT = .654E-5
MEAN_MOTION_DDOT = 0

CCSDS_OMM_VERS = 2.0
CREATION_DATE  = 
ORIGINATOR     = 

OBJECT_NAME    = H-2A R/B
OBJECT_ID      = 2018-084L
CENTER_NAME    = EARTH
REF_FRAME      = TEME
TIME_SYSTEM    = UTC
MEAN_ELEMENT_THEORY = SGP/SGP4

EPOCH          = 2026-02-25T12:37:01.724160
MEAN_MOTION    = 15.40757078
ECCENTRICITY   = .00261894
INCLINATION    = 98.8752
RA_OF_ASC_NODE = 271.3188
ARG_OF_PERICENTER = 66.2071
MEAN_ANOMALY   = 294.1913

EPHEMERIS_TYPE = 0
CLASSIFICATION_TYPE = U
NORAD_CAT_ID   = 43682
ELEMENT_SET_NO = 999
REV_AT_EPOCH   = 40390
BSTAR          = .45657419E-3
MEAN_MOTION_DOT = .18815E-3
MEAN_MOTION_DDOT = 0

CCSDS_OMM_VERS = 2.0
CREATION_DATE  = 
ORIGINATOR     = 

OBJECT_NAME    = SAOCOM 1B
OBJECT_ID      = 2020-059A
CENTER_NAME    = EARTH
REF_FRAME      = TEME
TIME_SYSTEM    = UTC
MEAN_ELEMENT_THEORY = SGP/SGP4

EPOCH          = 2026-02-25T20:13:03.112896
MEAN_MOTION    = 14.82156944
ECCENTRICITY   = .0001458
INCLINATION    = 97.8887
RA_OF_ASC_NODE = 244.2800
ARG_OF_PERICENTER = 83.1373
MEAN_ANOMALY   = 277.0006

EPHEMERIS_TYPE = 0
CLASSIFICATION_TYPE = U
NORAD_CAT_ID   = 46265
ELEMENT_SET_NO = 999
REV_AT_EPOCH   = 29699
BSTAR          = .21534E-4
MEAN_MOTION_DOT = .119E-5
MEAN_MOTION_DDOT = 0

CCSDS_OMM_VERS = 2.0
CREATION_DATE  = 
ORIGINATOR     = 

OBJECT_NAME    = CSS (TIANHE)
OBJECT_ID      = 2021-035A
CENTER_NAME    = EARTH
REF_FRAME      = TEME
TIME_SYSTEM    = UTC
MEAN_ELEMENT_THEORY = SGP/SGP4

EPOCH          = 2026-02-25T19:27:37.546272
MEAN_MOTION    = 15.60097250
ECCENTRICITY   = .0005797
INCLINATION    = 41.4664
RA_OF_ASC_NODE = 280.4104
ARG_OF_PERICENTER = 195.9504
MEAN_ANOMALY   = 164.1153

EPHEMERIS_TYPE = 0
CLASSIFICATION_TYPE = U
NORAD_CAT_ID   = 48274
ELEMENT_SET_NO = 999
REV_AT_EPOCH   = 27575
BSTAR          = .1078E-3
MEAN_MOTION_DOT = .8676E-4
MEAN_MOTION_DDOT = 0

CCSDS_OMM_VERS = 2.0
CREATION_DATE  = 
ORIGINATOR     = 

OBJECT_NAME    = COSMOS 2550
OBJECT_ID      = 2021-056A
CENTER_NAME    = EARTH
REF_FRAME      = TEME
TIME_SYSTEM    = UTC
MEAN_ELEMENT_THEORY = SGP/SGP4

EPOCH          = 2026-02-25T20:17:02.918688
MEAN_MOTION    = 15.33841229
ECCENTRICITY   = .0008345
INCLINATION    = 67.1417
RA_OF_ASC_NODE = 76.7603
ARG_OF_PERICENTER = 269.4588
MEAN_ANOMALY   = 90.5610

EPHEMERIS_TYPE = 0
CLASSIFICATION_TYPE = U
NORAD_CAT_ID   = 48865
ELEMENT_SET_NO = 999
REV_AT_EPOCH   = 26164
BSTAR          = .13243E-6
MEAN_MOTION_DOT = -.187E-5
MEAN_MOTION_DDOT = 0

CCSDS_OMM_VERS = 2.0
CREATION_DATE  = 
ORIGINATOR     = 

OBJECT_NAME    = CZ-2C R/B
OBJECT_ID      = 2022-058K
CENTER_NAME    = EARTH
REF_FRAME      = TEME
TIME_SYSTEM    = UTC
MEAN_ELEMENT_THEORY = SGP/SGP4

EPOCH          = 2026-02-25T03:56:32.607456
MEAN_MOTION    = 15.53283064
ECCENTRICITY   = .00420812
INCLINATION    = 50.1898
RA_OF_ASC_NODE = 22.6720
ARG_OF_PERICENTER = 147.4109
MEAN_ANOMALY   = 212.9471

EPHEMERIS_TYPE = 0
CLASSIFICATION_TYPE = U
NORAD_CAT_ID   = 52794
ELEMENT_SET_NO = 999
REV_AT_EPOCH   = 20818
BSTAR          = .45431191E-3
MEAN_MOTION_DOT = .2995E-3
MEAN_MOTION_DDOT = 0

