SL-4 R/B                
1 39679U 14021B   26056.16095316  .00014360  00000+0  32169-3 0  9999
2 39679  51.6071  38.3777 0098479  57.3095 303.7340 15.38703128654347
ALOS-2                  
1 39766U 14029A   26056.81549098  .00001638  00000+0  22609-3 0  9999
2 39766  97.9193 155.5839 0001619  98.8471 261.2924 14.79488330635110
YAOGAN-29               
1 41038U 15069A   26056.85184797  .00000695  00000+0  92308-4 0  9990
2 41038  98.0165  85.2494 0002591  56.1259 304.0201 14.82981483554129
ASTRO-H (HITOMI)        
1 41337U 16012A   26056.33858553  .00003123  00000+0  18217-3 0  9997
2 41337  30.9997  76.2448 0009957 208.5598 151.4495 15.09902171550368
HXMT (HUIYAN)           
1 42758U 17034A   26056.53391166  .00004943  00000+0  25238-3 0  9996
2 42758  43.0142  84.2442 0031378 159.9943 200.2142 15.17285709480691
CZ-2C R/B               
1 43521U 18054D   26057.10590257  .01914438  14466-5  83542-3 0  9993
2 43521  35.1237  19.0929 0010631 207.5270 152.4916 16.21257797427044
SAOCOM 1A               
1 43641U 18076A   26056.81115949  .00000654  00000+0  88768-4 0  9992
2 43641  97.8888 245.1512 0001290  82.4376 277.6984 14.82154031399609
H-2A R/B                
1 43682U 18084L   26056.52571440  .00018815  00000+0  45657-3 0  9993
2 43682  98.8752 271.3188 0026189  66.2071 294.1913 15.40757078403901
SAOCOM 1B               
1 46265U 20059A   26056.84239714  .00000119  00000+0  21534-4 0  9995
2 46265  97.8887 244.2800 0001458  83.1373 277.0006 14.82156944296996
CSS (TIANHE)            
1 48274U 21035A   26056.81085123  .00008676  00000+0  10780-3 0  9998
2 48274  41.4664 280.4104 0005797 195.9504 164.1153 15.60097250275754
COSMOS 2550             
1 48865U 21056A   26056.84517267 -.00000187  00000+0  13243-6 0  9999
2 48865  67.1417  76.7603 0008345 269.4588  90.5610 15.33841229261648
CZ-2C R/B               
1 52794U 22058K   26056.16426629  .00029950  00000+0  45431-3 0  9993
2 52794  50.1898  22.6720 0042081 147.4109 212.9471 15.53283064208182
